satname,norad_id,inclination_deg,eccentricity,mean_motion_rev_per_day,perigee_km,apogee_km,l1,l2
STARLINK-1297,45395,53.054,0.0001529,15.30651147,472.82068504739163,474.91602828546,1 45395U 20019AM  26018.66668981  .01981816  00000+0  59642-1 0  9995,2 45395  53.0540  10.0792 0001529  82.3368 317.0001 15.30651147  5641
STARLINK-1307,45397,53.0636,0.0001192,15.34133096,462.6811274218662,464.31217288406333,1 45397U 20019AP  26018.66668981  .01026012  00000+0  28151-1 0  9996,2 45397  53.0636   9.6706 0001192  79.1696 209.5502 15.34133096  5746
STARLINK-1255,45399,53.0486,0.0006097,15.42784645,433.7395075146351,442.05097723098424,1 45399U 20019AR  26018.62388541  .00018627  00000+0  42726-3 0  9993,2 45399  53.0486 341.9642 0006097  67.5376 292.6274 15.42784645322682
STARLINK-1260,45404,53.0875,0.0001712,15.1412948,522.4410691414278,524.8042316457222,1 45404U 20019AW  26018.66668981  .00944701  00000+0  47259-1 0  9998,2 45404  53.0875   1.0721 0001712  86.3116 198.5270 15.14129480  5747
STARLINK-1263,45405,53.0862,7.6e-05,15.1472821,521.2794190961367,522.3282100999559,1 45405U 20019AX  26018.66668981  .00055093  00000+0  29323-2 0  9999,2 45405  53.0862   1.0718 0000760 114.2350 252.0035 15.14728210  5845
STARLINK-1265,45406,53.0826,0.0001206,15.13749084,523.9463573249286,525.6113406277018,1 45406U 20019AY  26018.66668981  .00056711  00000+0  31015-2 0  9999,2 45406  53.0826   1.1028 0001206 140.7036 168.8508 15.13749084  5549
STARLINK-1278,45408,53.0496,0.000459,15.45283004,427.4214620177927,433.67183360648323,1 45408U 20019BA  26018.37977138  .00122348  00000+0  24978-2 0  9996,2 45408  53.0496  12.0495 0004590 351.6813   8.4116 15.45283004322151
STARLINK-1296,45412,53.0943,0.0001257,15.16010409,517.0459151671785,518.7795820739802,1 45412U 20019BE  26018.66668981  .00026454  00000+0  13715-2 0  9994,2 45412  53.0943   0.9121 0001257  73.9676 319.6524 15.16010409  5695
STARLINK-1298,45413,53.0439,0.0008832,15.73179802,343.87363179865133,355.7578875533427,1 45413U 20019BF  26018.66668981  .00238198  00000+0  16522-2 0  9994,2 45413  53.0439 306.3663 0008832 115.2606  55.2670 15.73179802  5971
STARLINK-1309,45414,53.0706,0.000199,15.13082597,525.4316941403558,528.1798613659021,1 45414U 20019BG  26018.66668981  .00017316  00000+0  98173-3 0  9995,2 45414  53.0706   1.0903 0001990  88.0205 126.2337 15.13082597  5499
STARLINK-1316,45415,53.0815,0.0001734,15.13761138,523.5452446374857,525.9391631453946,1 45415U 20019BH  26018.66668981  .00061963  00000+0  33835-2 0  9996,2 45415  53.0815   1.1013 0001734  49.8271  19.6988 15.13761138  5647
STARLINK-1318,45416,53.0432,0.0005141,15.7917016,329.34054038343766,336.24071617083155,1 45416U 20019BJ  26018.66668981  .00194166  00000+0  10425-2 0  9999,2 45416  53.0432 293.8568 0005141 125.2376 319.4900 15.79170160  5937
STARLINK-1286,45417,53.0512,0.0002228,15.46156197,426.46652976925725,429.49933681153016,1 45417U 20019BK  26018.59997770  .00328154  00000+0  63179-2 0  9993,2 45417  53.0512  10.6881 0002228   2.3664 357.7352 15.46156197322462
STARLINK-1308,45419,53.0563,0.0001263,15.31029124,471.87530605366555,473.60583772832615,1 45419U 20019BM  26018.66668981 -.00021921  00000+0 -71144-3 0  9998,2 45419  53.0563  29.7515 0001263  95.8716 120.6994 15.31029124  5749
STARLINK-1329,45531,53.0559,0.0006384,15.45899305,424.3914151566896,433.08243178217526,1 45531U 20025A   26018.24827658  .00100801  00000+0  20215-2 0  9997,2 45531  53.0559 323.7103 0006384  73.9380 286.2329 15.45899305317627
STARLINK-1338,45532,53.0548,0.0004725,15.44660882,429.15671879056026,435.5926523334174,1 45532U 20025B   26018.13871907  .00090236  00000+0  18918-2 0  9999,2 45532  53.0548 327.1517 0004725  95.1860 264.9685 15.44660882317565
STARLINK-1350,45535,53.0735,0.0002219,15.34646496,460.45288031553446,463.4885201128909,1 45535U 20025E   26018.66948502  .00008961  00000+0  27389-3 0  9993,2 45535  53.0735 267.8078 0002219 108.3087 251.8157 15.34646496318476
STARLINK-1362,45538,53.0565,0.0001412,15.06394049,546.2519351644905,548.2076587479514,1 45538U 20025H   26018.57519829 -.00000380  00000+0 -66089-5 0  9993,2 45538  53.0565 331.3104 0001412  91.5863 268.5288 15.06394049317546
STARLINK-1368,45540,53.0552,0.0001492,15.0639543,546.1923002708836,548.2588284600906,1 45540U 20025K   26018.57986129  .00001007  00000+0  86481-4 0  9999,2 45540  53.0552 331.5692 0001492  89.9625 270.1535 15.06395430317532
STARLINK-1371,45542,53.0547,0.0002961,15.39911748,444.3493096461343,448.3907827188832,1 45542U 20025M   26018.56227078  .00079687  00000+0  19622-2 0  9991,2 45542  53.0547 327.5580 0002961  94.1892 265.9450 15.39911748317591
STARLINK-1372,45543,53.0561,0.0001346,15.06391714,546.3047981171476,548.169108785416,1 45543U 20025N   26018.58723941 -.00000759  00000+0 -32081-4 0  9996,2 45543  53.0561 331.5367 0001346  89.9211 270.1932 15.06391714316635
STARLINK-1373,45544,53.0558,0.0003009,15.40975741,441.1757375095458,445.28083513885576,1 45544U 20025P   26018.26809510  .00047418  00000+0  11360-2 0  9995,2 45544  53.0558 329.3946 0003009  88.9977 271.1372 15.40975741317542
STARLINK-1294,45551,53.0376,0.0003586,15.77390157,335.4299530568733,340.246650543324,1 45551U 20025W   26018.60306183  .00127679  00000+0  74986-3 0  9991,2 45551  53.0376 229.8128 0003586 221.0992 138.9758 15.77390157318979
STARLINK-1325,45554,53.0388,0.0006803,15.97231972,277.57151088363753,286.6334327089626,1 45554U 20025Z   26018.66668981  .00361401  64334-4  80887-3 0  9992,2 45554  53.0388 216.9468 0006803 186.4903 175.9282 15.97231972  6013
STARLINK-1327,45555,53.0555,0.0003324,15.43933825,432.248094275149,436.777143741866,1 45555U 20025AA  26018.19200840  .00068363  00000+0  14756-2 0  9994,2 45555  53.0555 308.5137 0003324 105.1975 254.9399 15.43933825317821
STARLINK-1356,45564,53.0536,0.0001474,15.25655413,487.8058700285119,489.83024837996527,1 45564U 20025AK  26018.66668981  .02023051  00000+0  70688-1 0  9992,2 45564  53.0536 310.4674 0001474 118.2593 351.2774 15.25655413  5740
STARLINK-1357,45565,53.0586,0.0005747,15.45366064,426.38986757588555,434.21548814161633,1 45565U 20025AL  26018.42773049  .00019053  00000+0  40048-3 0  9993,2 45565  53.0586 279.2377 0005747 100.5564 259.6090 15.45366064318266
STARLINK-1361,45567,53.0551,0.0001385,15.2023323,504.1831817507509,506.0898485144435,1 45567U 20025AN  26018.66668981  .01166615  00000+0  48849-1 0  9992,2 45567  53.0551 310.6693 0001385 101.4997 165.3715 15.20233230  5794
STARLINK-1363,45568,53.0491,0.0001485,15.61521044,382.25868982391967,384.26682555195293,1 45568U 20025AP  26018.66668981  .01526064  00000+0  15556-1 0  9990,2 45568  53.0491 285.0252 0001485  88.9661 309.3550 15.61521044  5922
STARLINK-1366,45569,53.0494,0.0001264,15.60847013,384.3542776330896,386.06405154349795,1 45569U 20025AQ  26018.66668981  .01453462  00000+0  15288-1 0  9994,2 45569  53.0494 285.6429 0001264  96.2620 292.2805 15.60847013  5963
STARLINK-1376,45570,53.1604,0.0001684,15.29330249,476.6586777899802,478.96776182401027,1 45570U 20025AR  26018.66668981  .00061465  00000+0  21264-2 0  9995,2 45570  53.1604 309.8554 0001684  79.2197 313.6486 15.29330249  5802
STARLINK-1320,45572,53.053,0.0007116,15.56812248,392.06864999225854,401.71086807571646,1 45572U 20025AT  26018.55574395  .00112333  00000+0  15229-2 0  9995,2 45572  53.0530 231.1055 0007116 156.8836 203.2496 15.56812248318965
STARLINK-1321,45573,53.0546,0.0003349,15.40253426,443.0755552886794,447.6459340780675,1 45573U 20025AU  26018.14078818  .00054327  00000+0  13302-2 0  9998,2 45573  53.0546 298.8650 0003349 100.4574 259.6807 15.40253426317658
STARLINK-1331,45578,53.0559,0.0001259,15.12102737,528.91873619527,530.6581518220719,1 45578U 20025AZ  26018.47653099  .00021940  00000+0  12728-2 0  9995,2 45578  53.0559 301.8507 0001259  76.1379 283.9753 15.12102737317953
STARLINK-1333,45580,53.1561,0.0001578,15.29323724,476.75084879832957,478.91459284221946,1 45580U 20025BB  26018.66668981  .00060560  00000+0  20960-2 0  9993,2 45580  53.1561 310.1153 0001578  89.5651 317.4853 15.29323724  5840
STARLINK-1335,45581,53.0552,0.0001861,15.06388814,545.9570278825204,548.5346553761756,1 45581U 20025BC  26018.50521375 -.00001631  00000+0 -90665-4 0  9999,2 45581  53.0552 301.9067 0001861  85.5407 274.5795 15.06388814317943
STARLINK-1337,45582,53.054,0.0002022,15.17025757,513.4416207986023,516.2291388289996,1 45582U 20025BD  26018.66668981  .00088912  00000+0  44034-2 0  9994,2 45582  53.0540 300.7392 0002022  93.9761 171.9188 15.17025757  5806
STARLINK-1347,45586,53.0511,0.0005934,15.44188938,429.7200793155271,437.8044413576954,1 45586U 20025BH  26018.41777992  .00023827  00000+0  51854-3 0  9997,2 45586  53.0511 270.3330 0005934 107.8080 252.3573 15.44188938318378
STARLINK-1364,45589,53.0556,0.0001386,15.20096303,504.5957835604031,506.50394155870526,1 45589U 20025BL  26018.66668981  .01024801  00000+0  43533-1 0  9991,2 45589  53.0556 300.6079 0001386  97.7737 215.2521 15.20096303  5800
STARLINK-1365,45590,53.0556,0.0001074,15.25399013,488.8499420522221,490.32512928248343,1 45590U 20025BM  26018.66668981  .02056776  00000+0  72287-1 0  9998,2 45590  53.0556 330.4924 0001074  67.6077 218.1213 15.25399013  5842
STARLINK-1443,45660,53.0556,0.0001464,15.06401473,546.1931730411516,548.2209137770615,1 45660U 20035D   26018.46559612  .00000232  00000+0  34463-4 0  9996,2 45660  53.0556 292.0824 0001464  93.1766 266.9390 15.06401473311169
STARLINK-1446,45663,53.0237,0.0005899,15.40387178,440.9408005804544,448.99069720359694,1 45663U 20035G   26018.31198709  .00014359  00000+0  35903-3 0  9993,2 45663  53.0237 238.2534 0005899 112.4254 247.7375 15.40387178311906
STARLINK-1448,45665,53.0549,0.000143,15.19551582,506.2102475005813,508.17945240966765,1 45665U 20035J   26018.66668981  .01634306  00000+0  69722-1 0  9992,2 45665  53.0549 290.6848 0001430 120.2134 126.6344 15.19551582  5791
